<?xml version="1.0" encoding="UTF-8"?>
<ndm xmlns:xsi="http://www.w3.org/2001/XMLSchema-instance" xsi:noNamespaceSchemaLocation="https://sanaregistry.org/r/ndmxml_unqualified/ndmxml-2.0.0-master-2.0.xsd">
<omm id="CCSDS_OMM_VERS" version="2.0">
<header><CREATION_DATE/><ORIGINATOR/></header><body><segment><metadata><OBJECT_NAME>IRIDIUM 921 [-]</OBJECT_NAME><OBJECT_ID>1997-034E</OBJECT_ID><CENTER_NAME>EARTH</CENTER_NAME><REF_FRAME>TEME</REF_FRAME><TIME_SYSTEM>UTC</TIME_SYSTEM><MEAN_ELEMENT_THEORY>SGP4</MEAN_ELEMENT_THEORY></metadata><data><meanElements><EPOCH>2023-09-07T13:34:45.179616</EPOCH><MEAN_MOTION>15.24694417</MEAN_MOTION><ECCENTRICITY>.0003796</ECCENTRICITY><INCLINATION>86.3838</INCLINATION><RA_OF_ASC_NODE>66.6651</RA_OF_ASC_NODE><ARG_OF_PERICENTER>238.1941</ARG_OF_PERICENTER><MEAN_ANOMALY>121.8935</MEAN_ANOMALY></meanElements><tleParameters><EPHEMERIS_TYPE>0</EPHEMERIS_TYPE><CLASSIFICATION_TYPE>U</CLASSIFICATION_TYPE><NORAD_CAT_ID>24873</NORAD_CAT_ID><ELEMENT_SET_NO>999</ELEMENT_SET_NO><REV_AT_EPOCH>43178</REV_AT_EPOCH><BSTAR>.5898E-3</BSTAR><MEAN_MOTION_DOT>.14623E-3</MEAN_MOTION_DOT><MEAN_MOTION_DDOT>0</MEAN_MOTION_DDOT></tleParameters></data></segment></body></omm>
<omm id="CCSDS_OMM_VERS" version="2.0">
<header><CREATION_DATE/><ORIGINATOR/></header><body><segment><metadata><OBJECT_NAME>IRIDIUM 26 [-]</OBJECT_NAME><OBJECT_ID>1997-043A</OBJECT_ID><CENTER_NAME>EARTH</CENTER_NAME><REF_FRAME>TEME</REF_FRAME><TIME_SYSTEM>UTC</TIME_SYSTEM><MEAN_ELEMENT_THEORY>SGP4</MEAN_ELEMENT_THEORY></metadata><data><meanElements><EPOCH>2023-09-08T02:34:52.061664</EPOCH><MEAN_MOTION>14.35983545</MEAN_MOTION><ECCENTRICITY>.0002338</ECCENTRICITY><INCLINATION>86.3995</INCLINATION><RA_OF_ASC_NODE>22.4930</RA_OF_ASC_NODE><ARG_OF_PERICENTER>92.0443</ARG_OF_PERICENTER><MEAN_ANOMALY>268.1022</MEAN_ANOMALY></meanElements><tleParameters><EPHEMERIS_TYPE>0</EPHEMERIS_TYPE><CLASSIFICATION_TYPE>U</CLASSIFICATION_TYPE><NORAD_CAT_ID>24903</NORAD_CAT_ID><ELEMENT_SET_NO>999</ELEMENT_SET_NO><REV_AT_EPOCH>36417</REV_AT_EPOCH><BSTAR>.18047E-3</BSTAR><MEAN_MOTION_DOT>.543E-5</MEAN_MOTION_DOT><MEAN_MOTION_DDOT>0</MEAN_MOTION_DDOT></tleParameters></data></segment></body></omm>
<omm id="CCSDS_OMM_VERS" version="2.0">
<header><CREATION_DATE/><ORIGINATOR/></header><body><segment><metadata><OBJECT_NAME>IRIDIUM 22 [-]</OBJECT_NAME><OBJECT_ID>1997-043E</OBJECT_ID><CENTER_NAME>EARTH</CENTER_NAME><REF_FRAME>TEME</REF_FRAME><TIME_SYSTEM>UTC</TIME_SYSTEM><MEAN_ELEMENT_THEORY>SGP4</MEAN_ELEMENT_THEORY></metadata><data><meanElements><EPOCH>2023-09-07T16:00:53.861184</EPOCH><MEAN_MOTION>14.34894475</MEAN_MOTION><ECCENTRICITY>.0002108</ECCENTRICITY><INCLINATION>86.3992</INCLINATION><RA_OF_ASC_NODE>25.6885</RA_OF_ASC_NODE><ARG_OF_PERICENTER>93.6605</ARG_OF_PERICENTER><MEAN_ANOMALY>266.4832</MEAN_ANOMALY></meanElements><tleParameters><EPHEMERIS_TYPE>0</EPHEMERIS_TYPE><CLASSIFICATION_TYPE>U</CLASSIFICATION_TYPE><NORAD_CAT_ID>24907</NORAD_CAT_ID><ELEMENT_SET_NO>999</ELEMENT_SET_NO><REV_AT_EPOCH>36374</REV_AT_EPOCH><BSTAR>.17847E-3</BSTAR><MEAN_MOTION_DOT>.526E-5</MEAN_MOTION_DOT><MEAN_MOTION_DDOT>0</MEAN_MOTION_DDOT></tleParameters></data></segment></body></omm>
<omm id="CCSDS_OMM_VERS" version="2.0">
<header><CREATION_DATE/><ORIGINATOR/></header><body><segment><metadata><OBJECT_NAME>DUMMY MASS 1 [-]</OBJECT_NAME><OBJECT_ID>1997-048A</OBJECT_ID><CENTER_NAME>EARTH</CENTER_NAME><REF_FRAME>TEME</REF_FRAME><TIME_SYSTEM>UTC</TIME_SYSTEM><MEAN_ELEMENT_THEORY>SGP4</MEAN_ELEMENT_THEORY></metadata><data><meanElements><EPOCH>2023-09-07T11:55:58.615680</EPOCH><MEAN_MOTION>14.85808226</MEAN_MOTION><ECCENTRICITY>.0004661</ECCENTRICITY><INCLINATION>86.3295</INCLINATION><RA_OF_ASC_NODE>75.0118</RA_OF_ASC_NODE><ARG_OF_PERICENTER>291.9134</ARG_OF_PERICENTER><MEAN_ANOMALY>68.1594</MEAN_ANOMALY></meanElements><tleParameters><EPHEMERIS_TYPE>0</EPHEMERIS_TYPE><CLASSIFICATION_TYPE>U</CLASSIFICATION_TYPE><NORAD_CAT_ID>24925</NORAD_CAT_ID><ELEMENT_SET_NO>999</ELEMENT_SET_NO><REV_AT_EPOCH>40901</REV_AT_EPOCH><BSTAR>.53237E-4</BSTAR><MEAN_MOTION_DOT>.491E-5</MEAN_MOTION_DOT><MEAN_MOTION_DDOT>0</MEAN_MOTION_DDOT></tleParameters></data></segment></body></omm>
<omm id="CCSDS_OMM_VERS" version="2.0">
<header><CREATION_DATE/><ORIGINATOR/></header><body><segment><metadata><OBJECT_NAME>DUMMY MASS 2 [-]</OBJECT_NAME><OBJECT_ID>1997-048B</OBJECT_ID><CENTER_NAME>EARTH</CENTER_NAME><REF_FRAME>TEME</REF_FRAME><TIME_SYSTEM>UTC</TIME_SYSTEM><MEAN_ELEMENT_THEORY>SGP4</MEAN_ELEMENT_THEORY></metadata><data><meanElements><EPOCH>2023-09-08T00:38:45.068928</EPOCH><MEAN_MOTION>14.85571027</MEAN_MOTION><ECCENTRICITY>.0005643</ECCENTRICITY><INCLINATION>86.3296</INCLINATION><RA_OF_ASC_NODE>76.2620</RA_OF_ASC_NODE><ARG_OF_PERICENTER>303.0873</ARG_OF_PERICENTER><MEAN_ANOMALY>56.9808</MEAN_ANOMALY></meanElements><tleParameters><EPHEMERIS_TYPE>0</EPHEMERIS_TYPE><CLASSIFICATION_TYPE>U</CLASSIFICATION_TYPE><NORAD_CAT_ID>24926</NORAD_CAT_ID><ELEMENT_SET_NO>999</ELEMENT_SET_NO><REV_AT_EPOCH>40888</REV_AT_EPOCH><BSTAR>.56142E-4</BSTAR><MEAN_MOTION_DOT>.513E-5</MEAN_MOTION_DOT><MEAN_MOTION_DDOT>0</MEAN_MOTION_DDOT></tleParameters></data></segment></body></omm>
<omm id="CCSDS_OMM_VERS" version="2.0">
<header><CREATION_DATE/><ORIGINATOR/></header><body><segment><metadata><OBJECT_NAME>IRIDIUM 29 [-]</OBJECT_NAME><OBJECT_ID>1997-051A</OBJECT_ID><CENTER_NAME>EARTH</CENTER_NAME><REF_FRAME>TEME</REF_FRAME><TIME_SYSTEM>UTC</TIME_SYSTEM><MEAN_ELEMENT_THEORY>SGP4</MEAN_ELEMENT_THEORY></metadata><data><meanElements><EPOCH>2023-09-07T21:35:22.058304</EPOCH><MEAN_MOTION>14.35357278</MEAN_MOTION><ECCENTRICITY>.0002001</ECCENTRICITY><INCLINATION>86.3928</INCLINATION><RA_OF_ASC_NODE>55.5961</RA_OF_ASC_NODE><ARG_OF_PERICENTER>96.8742</ARG_OF_PERICENTER><MEAN_ANOMALY>263.2683</MEAN_ANOMALY></meanElements><tleParameters><EPHEMERIS_TYPE>0</EPHEMERIS_TYPE><CLASSIFICATION_TYPE>U</CLASSIFICATION_TYPE><NORAD_CAT_ID>24944</NORAD_CAT_ID><ELEMENT_SET_NO>999</ELEMENT_SET_NO><REV_AT_EPOCH>36046</REV_AT_EPOCH><BSTAR>.17204E-3</BSTAR><MEAN_MOTION_DOT>.513E-5</MEAN_MOTION_DOT><MEAN_MOTION_DDOT>0</MEAN_MOTION_DDOT></tleParameters></data></segment></body></omm>
<omm id="CCSDS_OMM_VERS" version="2.0">
<header><CREATION_DATE/><ORIGINATOR/></header><body><segment><metadata><OBJECT_NAME>IRIDIUM 33 [-]</OBJECT_NAME><OBJECT_ID>1997-051C</OBJECT_ID><CENTER_NAME>EARTH</CENTER_NAME><REF_FRAME>TEME</REF_FRAME><TIME_SYSTEM>UTC</TIME_SYSTEM><MEAN_ELEMENT_THEORY>SGP4</MEAN_ELEMENT_THEORY></metadata><data><meanElements><EPOCH>2023-09-07T11:04:11.611200</EPOCH><MEAN_MOTION>14.34099568</MEAN_MOTION><ECCENTRICITY>.0009273</ECCENTRICITY><INCLINATION>86.3845</INCLINATION><RA_OF_ASC_NODE>55.0603</RA_OF_ASC_NODE><ARG_OF_PERICENTER>46.1178</ARG_OF_PERICENTER><MEAN_ANOMALY>314.0782</MEAN_ANOMALY></meanElements><tleParameters><EPHEMERIS_TYPE>0</EPHEMERIS_TYPE><CLASSIFICATION_TYPE>U</CLASSIFICATION_TYPE><NORAD_CAT_ID>24946</NORAD_CAT_ID><ELEMENT_SET_NO>999</ELEMENT_SET_NO><REV_AT_EPOCH>35974</REV_AT_EPOCH><BSTAR>.12688E-3</BSTAR><MEAN_MOTION_DOT>.374E-5</MEAN_MOTION_DOT><MEAN_MOTION_DDOT>0</MEAN_MOTION_DDOT></tleParameters></data></segment></body></omm>
<omm id="CCSDS_OMM_VERS" version="2.0">
<header><CREATION_DATE/><ORIGINATOR/></header><body><segment><metadata><OBJECT_NAME>IRIDIUM 28 [-]</OBJECT_NAME><OBJECT_ID>1997-051E</OBJECT_ID><CENTER_NAME>EARTH</CENTER_NAME><REF_FRAME>TEME</REF_FRAME><TIME_SYSTEM>UTC</TIME_SYSTEM><MEAN_ELEMENT_THEORY>SGP4</MEAN_ELEMENT_THEORY></metadata><data><meanElements><EPOCH>2023-09-07T09:25:28.718400</EPOCH><MEAN_MOTION>14.36275715</MEAN_MOTION><ECCENTRICITY>.0002429</ECCENTRICITY><INCLINATION>86.3936</INCLINATION><RA_OF_ASC_NODE>53.6961</RA_OF_ASC_NODE><ARG_OF_PERICENTER>84.5792</ARG_OF_PERICENTER><MEAN_ANOMALY>275.5682</MEAN_ANOMALY></meanElements><tleParameters><EPHEMERIS_TYPE>0</EPHEMERIS_TYPE><CLASSIFICATION_TYPE>U</CLASSIFICATION_TYPE><NORAD_CAT_ID>24948</NORAD_CAT_ID><ELEMENT_SET_NO>999</ELEMENT_SET_NO><REV_AT_EPOCH>36068</REV_AT_EPOCH><BSTAR>.18353E-3</BSTAR><MEAN_MOTION_DOT>.555E-5</MEAN_MOTION_DOT><MEAN_MOTION_DDOT>0</MEAN_MOTION_DDOT></tleParameters></data></segment></body></omm>

</ndm>
