IRIDIUM 921 [-]         
1 24873U 97034E   23250.56580069  .00014623  00000+0  58980-3 0  9996
2 24873  86.3838  66.6651 0003796 238.1941 121.8935 15.24694417431780
IRIDIUM 26 [-]          
1 24903U 97043A   23251.10754701  .00000543  00000+0  18047-3 0  9993
2 24903  86.3995  22.4930 0002338  92.0443 268.1022 14.35983545364177
IRIDIUM 22 [-]          
1 24907U 97043E   23250.66729006  .00000526  00000+0  17847-3 0  9995
2 24907  86.3992  25.6885 0002108  93.6605 266.4832 14.34894475363748
DUMMY MASS 1 [-]        
1 24925U 97048A   23250.49720620  .00000491  00000+0  53237-4 0  9999
2 24925  86.3295  75.0118 0004661 291.9134  68.1594 14.85808226409016
DUMMY MASS 2 [-]        
1 24926U 97048B   23251.02691052  .00000513  00000+0  56142-4 0  9999
2 24926  86.3296  76.2620 0005643 303.0873  56.9808 14.85571027408888
IRIDIUM 29 [-]          
1 24944U 97051A   23250.89956086  .00000513  00000+0  17204-3 0  9993
2 24944  86.3928  55.5961 0002001  96.8742 263.2683 14.35357278360465
IRIDIUM 33 [-]          
1 24946U 97051C   23250.46124550  .00000374  00000+0  12688-3 0  9997
2 24946  86.3845  55.0603 0009273  46.1178 314.0782 14.34099568359740
IRIDIUM 28 [-]          
1 24948U 97051E   23250.39269350  .00000555  00000+0  18353-3 0  9995
2 24948  86.3936  53.6961 0002429  84.5792 275.5682 14.36275715360685
